{
  "norad_id": 60358,
  "name": "STARLINK-32287",
  "history": [
    {
      "epoch": "2026-03-28T18:20:05.001792Z",
      "apogee_km": 475.9083577928732,
      "perigee_km": 474.56372600205304,
      "latitude_deg": 5.335131414992278e-06,
      "longitude_deg": 120.11264699540281,
      "height_km": 476.1772481337995,
      "semi_major_axis_km": 6853.373041897463,
      "eccentricity": 9.81e-05,
      "inclination_deg": 53.1613,
      "raan_deg": 221.3132,
      "arg_perigee_deg": 93.6331,
      "mean_anomaly_deg": 266.4782,
      "mean_motion_rev_day": 15.30192976
    },
    {
      "epoch": "2026-03-29T02:10:21.271008Z",
      "apogee_km": 476.0228342678638,
      "perigee_km": 474.4945270310782,
      "latitude_deg": -2.5250612874705525e-05,
      "longitude_deg": 0.7054465958719982,
      "height_km": 476.1993303125967,
      "semi_major_axis_km": 6853.395680649471,
      "eccentricity": 0.0001115,
      "inclination_deg": 53.1611,
      "raan_deg": 219.7957,
      "arg_perigee_deg": 93.1692,
      "mean_anomaly_deg": 266.9436,
      "mean_motion_rev_day": 15.30185394
    }
  ]
}